[{"OBJECT_NAME":"STARLINK-6069","OBJECT_ID":"2023-078AP","EPOCH":"2026-03-20T00:38:20.903712","MEAN_MOTION":14.98330846,"ECCENTRICITY":0.00027676,"INCLINATION":69.9981,"RA_OF_ASC_NODE":298.3216,"ARG_OF_PERICENTER":270.9874,"MEAN_ANOMALY":89.0967,"EPHEMERIS_TYPE":0,"CLASSIFICATION_TYPE":"U","NORAD_CAT_ID":56804,"ELEMENT_SET_NO":999,"REV_AT_EPOCH":15539,"BSTAR":3.2949836e-5,"MEAN_MOTION_DOT":3.0e-6,"MEAN_MOTION_DDOT":0},{"OBJECT_NAME":"STARLINK-6064","OBJECT_ID":"2023-078AQ","EPOCH":"2026-03-20T00:44:19.797216","MEAN_MOTION":14.98350963,"ECCENTRICITY":0.00024496,"INCLINATION":69.9993,"RA_OF_ASC_NODE":298.3339,"ARG_OF_PERICENTER":268.8957,"MEAN_ANOMALY":91.1921,"EPHEMERIS_TYPE":0,"CLASSIFICATION_TYPE":"U","NORAD_CAT_ID":56805,"ELEMENT_SET_NO":999,"REV_AT_EPOCH":15472,"BSTAR":0.00020600939,"MEAN_MOTION_DOT":2.367e-5,"MEAN_MOTION_DDOT":0},{"OBJECT_NAME":"STARLINK-6072","OBJECT_ID":"2023-078AR","EPOCH":"2026-03-19T23:51:59.661792","MEAN_MOTION":14.9674394,"ECCENTRICITY":0.00047856,"INCLINATION":69.9972,"RA_OF_ASC_NODE":278.3248,"ARG_OF_PERICENTER":154.6589,"MEAN_ANOMALY":205.4805,"EPHEMERIS_TYPE":0,"CLASSIFICATION_TYPE":"U","NORAD_CAT_ID":56806,"ELEMENT_SET_NO":999,"REV_AT_EPOCH":15519,"BSTAR":-0.018059734,"MEAN_MOTION_DOT":-0.00201153,"MEAN_MOTION_DDOT":0},{"OBJECT_NAME":"STARLINK-6073","OBJECT_ID":"2023-078AS","EPOCH":"2026-03-20T00:14:19.767264","MEAN_MOTION":14.98339811,"ECCENTRICITY":0.0002748,"INCLINATION":70.0002,"RA_OF_ASC_NODE":298.2625,"ARG_OF_PERICENTER":268.8753,"MEAN_ANOMALY":91.2092,"EPHEMERIS_TYPE":0,"CLASSIFICATION_TYPE":"U","NORAD_CAT_ID":56807,"ELEMENT_SET_NO":999,"REV_AT_EPOCH":15472,"BSTAR":0.0011352,"MEAN_MOTION_DOT":0.00013482,"MEAN_MOTION_DDOT":0},{"OBJECT_NAME":"STARLINK-6042","OBJECT_ID":"2023-078AT","EPOCH":"2026-03-20T05:10:55.119072","MEAN_MOTION":14.98338863,"ECCENTRICITY":0.00023659,"INCLINATION":69.9991,"RA_OF_ASC_NODE":247.9951,"ARG_OF_PERICENTER":273.7953,"MEAN_ANOMALY":86.2935,"EPHEMERIS_TYPE":0,"CLASSIFICATION_TYPE":"U","NORAD_CAT_ID":56808,"ELEMENT_SET_NO":999,"REV_AT_EPOCH":15599,"BSTAR":7.1363126e-5,"MEAN_MOTION_DOT":7.59e-6,"MEAN_MOTION_DDOT":0},{"OBJECT_NAME":"STARLINK-6040","OBJECT_ID":"2023-078AU","EPOCH":"2026-03-20T02:26:50.999424","MEAN_MOTION":14.98330915,"ECCENTRICITY":0.00025628,"INCLINATION":69.9997,"RA_OF_ASC_NODE":318.0526,"ARG_OF_PERICENTER":270.7113,"MEAN_ANOMALY":89.3753,"EPHEMERIS_TYPE":0,"CLASSIFICATION_TYPE":"U","NORAD_CAT_ID":56809,"ELEMENT_SET_NO":999,"REV_AT_EPOCH":15424,"BSTAR":7.6098147e-5,"MEAN_MOTION_DOT":8.15e-6,"MEAN_MOTION_DDOT":0},{"OBJECT_NAME":"STARLINK-6031","OBJECT_ID":"2023-078AV","EPOCH":"2026-03-20T01:14:44.229120","MEAN_MOTION":14.98333077,"ECCENTRICITY":0.00026361,"INCLINATION":69.9997,"RA_OF_ASC_NODE":318.2797,"ARG_OF_PERICENTER":269.5766,"MEAN_ANOMALY":90.5091,"EPHEMERIS_TYPE":0,"CLASSIFICATION_TYPE":"U","NORAD_CAT_ID":56810,"ELEMENT_SET_NO":999,"REV_AT_EPOCH":15423,"BSTAR":2.685024e-6,"MEAN_MOTION_DOT":-6.1e-7,"MEAN_MOTION_DDOT":0},{"OBJECT_NAME":"STARLINK-6063","OBJECT_ID":"2023-078AW","EPOCH":"2026-03-20T06:30:09.336960","MEAN_MOTION":15.59337178,"ECCENTRICITY":0.00032866,"INCLINATION":69.9991,"RA_OF_ASC_NODE":266.4241,"ARG_OF_PERICENTER":257.6502,"MEAN_ANOMALY":102.432,"EPHEMERIS_TYPE":0,"CLASSIFICATION_TYPE":"U","NORAD_CAT_ID":56811,"ELEMENT_SET_NO":999,"REV_AT_EPOCH":15553,"BSTAR":0.00031931091,"MEAN_MOTION_DOT":0.00025152,"MEAN_MOTION_DDOT":0},{"OBJECT_NAME":"STARLINK-6065","OBJECT_ID":"2023-078AX","EPOCH":"2026-03-20T04:00:01.999584","MEAN_MOTION":14.98334252,"ECCENTRICITY":0.00032174,"INCLINATION":69.9993,"RA_OF_ASC_NODE":297.9242,"ARG_OF_PERICENTER":269.6877,"MEAN_ANOMALY":169.7944,"EPHEMERIS_TYPE":0,"CLASSIFICATION_TYPE":"U","NORAD_CAT_ID":56812,"ELEMENT_SET_NO":999,"REV_AT_EPOCH":575,"BSTAR":-0.0021671479,"MEAN_MOTION_DOT":-0.00025859,"MEAN_MOTION_DDOT":0},{"OBJECT_NAME":"STARLINK-6056","OBJECT_ID":"2023-078AY","EPOCH":"2026-03-20T02:19:06.288384","MEAN_MOTION":14.99855012,"ECCENTRICITY":0.00023775,"INCLINATION":69.999,"RA_OF_ASC_NODE":318.0345,"ARG_OF_PERICENTER":272.7577,"MEAN_ANOMALY":87.3311,"EPHEMERIS_TYPE":0,"CLASSIFICATION_TYPE":"U","NORAD_CAT_ID":56813,"ELEMENT_SET_NO":999,"REV_AT_EPOCH":15424,"BSTAR":0.016627834,"MEAN_MOTION_DOT":0.0021269,"MEAN_MOTION_DDOT":0},{"OBJECT_NAME":"STARLINK-6059","OBJECT_ID":"2023-078AZ","EPOCH":"2026-03-20T00:56:42.566784","MEAN_MOTION":14.98323264,"ECCENTRICITY":0.00029882,"INCLINATION":69.9994,"RA_OF_ASC_NODE":318.2364,"ARG_OF_PERICENTER":266.3908,"MEAN_ANOMALY":93.691,"EPHEMERIS_TYPE":0,"CLASSIFICATION_TYPE":"U","NORAD_CAT_ID":56814,"ELEMENT_SET_NO":999,"REV_AT_EPOCH":15423,"BSTAR":8.0431883e-5,"MEAN_MOTION_DOT":8.67e-6,"MEAN_MOTION_DDOT":0},{"OBJECT_NAME":"STARLINK-6067","OBJECT_ID":"2023-078BB","EPOCH":"2026-03-20T00:08:17.888640","MEAN_MOTION":14.983339,"ECCENTRICITY":0.00028745,"INCLINATION":69.9986,"RA_OF_ASC_NODE":298.2476,"ARG_OF_PERICENTER":266.2876,"MEAN_ANOMALY":93.7954,"EPHEMERIS_TYPE":0,"CLASSIFICATION_TYPE":"U","NORAD_CAT_ID":56816,"ELEMENT_SET_NO":999,"REV_AT_EPOCH":15472,"BSTAR":3.8995208e-5,"MEAN_MOTION_DOT":3.72e-6,"MEAN_MOTION_DDOT":0},{"OBJECT_NAME":"STARLINK-6028","OBJECT_ID":"2023-078BD","EPOCH":"2026-03-20T00:44:41.837856","MEAN_MOTION":14.98340447,"ECCENTRICITY":0.00029549,"INCLINATION":70.0004,"RA_OF_ASC_NODE":318.2066,"ARG_OF_PERICENTER":269.094,"MEAN_ANOMALY":90.9881,"EPHEMERIS_TYPE":0,"CLASSIFICATION_TYPE":"U","NORAD_CAT_ID":56818,"ELEMENT_SET_NO":999,"REV_AT_EPOCH":15492,"BSTAR":0.00026700174,"MEAN_MOTION_DOT":3.095e-5,"MEAN_MOTION_DDOT":0},{"OBJECT_NAME":"STARLINK-30119","OBJECT_ID":"2023-079A","EPOCH":"2026-03-19T23:42:20.279808","MEAN_MOTION":15.26745734,"ECCENTRICITY":0.0001494,"INCLINATION":43.0041,"RA_OF_ASC_NODE":48.8555,"ARG_OF_PERICENTER":264.3307,"MEAN_ANOMALY":95.7374,"EPHEMERIS_TYPE":0,"CLASSIFICATION_TYPE":"U","NORAD_CAT_ID":56823,"ELEMENT_SET_NO":999,"REV_AT_EPOCH":15489,"BSTAR":7.876213e-5,"MEAN_MOTION_DOT":1.854e-5,"MEAN_MOTION_DDOT":0},{"OBJECT_NAME":"STARLINK-30120","OBJECT_ID":"2023-079B","EPOCH":"2026-03-20T06:17:20.559264","MEAN_MOTION":15.26745659,"ECCENTRICITY":0.00015201,"INCLINATION":43.0009,"RA_OF_ASC_NODE":47.47,"ARG_OF_PERICENTER":277.7128,"MEAN_ANOMALY":82.3551,"EPHEMERIS_TYPE":0,"CLASSIFICATION_TYPE":"U","NORAD_CAT_ID":56824,"ELEMENT_SET_NO":999,"REV_AT_EPOCH":15482,"BSTAR":5.4729648e-5,"MEAN_MOTION_DOT":1.209e-5,"MEAN_MOTION_DDOT":0},{"OBJECT_NAME":"STARLINK-30084","OBJECT_ID":"2023-079C","EPOCH":"2026-03-20T06:23:25.937952","MEAN_MOTION":15.26726673,"ECCENTRICITY":8.919e-5,"INCLINATION":43.0023,"RA_OF_ASC_NODE":46.6523,"ARG_OF_PERICENTER":289.1906,"MEAN_ANOMALY":70.8849,"EPHEMERIS_TYPE":0,"CLASSIFICATION_TYPE":"U","NORAD_CAT_ID":56825,"ELEMENT_SET_NO":999,"REV_AT_EPOCH":15451,"BSTAR":-7.0725562e-5,"MEAN_MOTION_DOT":-2.155e-5,"MEAN_MOTION_DDOT":0}]
