STARLINK-6069           
1 56804U 23078AP  26079.02663083  .00000300  00000+0  32950-4 0  9990
2 56804  69.9981 298.3216 0002767 270.9874  89.0967 14.98330846155395
STARLINK-6064           
1 56805U 23078AQ  26079.03078469  .00002367  00000+0  20601-3 0  9994
2 56805  69.9993 298.3339 0002449 268.8957  91.1921 14.98350963154722
STARLINK-6072           
1 56806U 23078AR  26078.99444053 -.00201153  00000+0 -18060-1 0  9995
2 56806  69.9972 278.3248 0004785 154.6589 205.4805 14.96743940155197
STARLINK-6073           
1 56807U 23078AS  26079.00995101  .00013482  00000+0  11352-2 0  9996
2 56807  70.0002 298.2625 0002748 268.8753  91.2092 14.98339811154720
STARLINK-6042           
1 56808U 23078AT  26079.21591573  .00000759  00000+0  71363-4 0  9998
2 56808  69.9991 247.9951 0002365 273.7953  86.2935 14.98338863155996
STARLINK-6040           
1 56809U 23078AU  26079.10197916  .00000815  00000+0  76098-4 0  9993
2 56809  69.9997 318.0526 0002562 270.7113  89.3753 14.98330915154244
STARLINK-6031           
1 56810U 23078AV  26079.05190080 -.00000061  00000+0  26850-5 0  9990
2 56810  69.9997 318.2797 0002636 269.5766  90.5091 14.98333077154230
STARLINK-6063           
1 56811U 23078AW  26079.27094140  .00025152  00000+0  31931-3 0  9996
2 56811  69.9991 266.4241 0003286 257.6502 102.4320 15.59337178155537
STARLINK-6065           
1 56812U 23078AX  26079.16668981 -.00025859  00000+0 -21671-2 0  9990
2 56812  69.9993 297.9242 0003217 269.6877 169.7944 14.98334252  5750
STARLINK-6056           
1 56813U 23078AY  26079.09660056  .00212690  00000+0  16628-1 0  9992
2 56813  69.9990 318.0345 0002377 272.7577  87.3311 14.99855012154240
STARLINK-6059           
1 56814U 23078AZ  26079.03938156  .00000867  00000+0  80432-4 0  9994
2 56814  69.9994 318.2364 0002988 266.3908  93.6910 14.98323264154235
STARLINK-6067           
1 56816U 23078BB  26079.00576260  .00000372  00000+0  38995-4 0  9995
2 56816  69.9986 298.2476 0002874 266.2876  93.7954 14.98333900154727
STARLINK-6028           
1 56818U 23078BD  26079.03103979  .00003095  00000+0  26700-3 0  9998
2 56818  70.0004 318.2066 0002954 269.0940  90.9881 14.98340447154927
STARLINK-30119          
1 56823U 23079A   26078.98773472  .00001854  00000+0  78762-4 0  9996
2 56823  43.0041  48.8555 0001494 264.3307  95.7374 15.26745734154892
STARLINK-30120          
1 56824U 23079B   26079.26204351  .00001209  00000+0  54730-4 0  9997
2 56824  43.0009  47.4700 0001520 277.7128  82.3551 15.26745659154821
STARLINK-30084          
1 56825U 23079C   26079.26627243 -.00002155  00000+0 -70726-4 0  9993
2 56825  43.0023  46.6523 0000891 289.1906  70.8849 15.26726673154516
